NORAD_CAT_ID,OBJECT_NAME,OBJECT_TYPE,EPOCH,MEAN_MOTION,ECCENTRICITY,INCLINATION,RA_OF_ASC_NODE,ARG_OF_PERICENTER,MEAN_ANOMALY,BSTAR,MEAN_MOTION_DOT,MEAN_MOTION_DDOT,TLE_LINE0,TLE_LINE1,TLE_LINE2,SEMIMAJOR_AXIS,PERIOD,APOGEE,PERIGEE,DECAYED
52588.0,STARLINK-3917,PAYLOAD,2022-10-23 07:57:55,15.08847021,0.0001739,53.2181,255.8854,55.3389,304.7766,-4.187e-05,-9.55e-06,0.0,0 STARLINK-3917,1 52588U 22051BE  22296.33189581 -.00000955  00000-0 -41870-4 0  9992,2 52588  53.2181 255.8854 0001739  55.3389 304.7766 15.08847021 25398,6917.859,95.437,540.927,538.521,0.0
52588.0,STARLINK-3917,PAYLOAD,2022-10-24 01:27:09,15.0885036,0.0001783,53.218,252.6144,52.4413,307.6740000000001,0.00021341,3.111e-05,0.0,0 STARLINK-3917,1 52588U 22051BE  22297.06052625  .00003111  00000-0  21341-3 0  9996,2 52588  53.2180 252.6144 0001783  52.4413 307.6740 15.08850360 25573,6917.849,95.437,540.947,538.48,0.0
52588.0,STARLINK-3917,PAYLOAD,2022-10-24 06:13:19,15.08837163,0.0001672,53.2183,251.7224,69.477,290.6401,9.5471e-05,1.232e-05,0.0,0 STARLINK-3917,1 52588U 22051BE  22297.25925766  .00001232  00000-0  95471-4 0  9990,2 52588  53.2183 251.7224 0001672  69.4770 290.6401 15.08837163 25601,6917.889,95.438,540.911,538.597,0.0
52588.0,STARLINK-3917,PAYLOAD,2022-10-24 20:31:48,15.08828641,0.0001078,53.2178,249.0428,49.3791,310.7295,-0.00015543,-2.7600000000000014e-05,0.0,0 STARLINK-3917,1 52588U 22051BE  22297.85541895 -.00002760  00000-0 -15543-3 0  9993,2 52588  53.2178 249.0428 0001078  49.3791 310.7295 15.08828641 25629,6917.915,95.438,540.526,539.034,0.0
52588.0,STARLINK-3917,PAYLOAD,2022-10-25 01:17:56,15.08859171,0.0001708,53.2179,248.1518,74.486,285.632,0.00027693,4.124e-05,0.0,0 STARLINK-3917,1 52588U 22051BE  22298.05412410  .00004124  00000-0  27693-3 0  9999,2 52588  53.2179 248.1518 0001708  74.4860 285.6320 15.08859171 25728,6917.821999999999,95.436,540.868,538.505,0.0
52588.0,STARLINK-3917,PAYLOAD,2022-10-25 06:04:06,15.08836062,0.0001733999999999,53.2173,247.2601,61.662,298.4546,-7.2748e-05,-1.446e-05,0.0,0 STARLINK-3917,1 52588U 22051BE  22298.25285539 -.00001446  00000-0 -72748-4 0  9999,2 52588  53.2173 247.2601 0001734  61.6620 298.4546 15.08836062 25687,6917.892,95.438,540.957,538.558,0.0
52588.0,STARLINK-3917,PAYLOAD,2022-10-25 20:22:35,15.08830436,0.0001828,53.2173,244.5842,66.4279,293.6905,-0.00011336,-2.091e-05,0.0,0 STARLINK-3917,1 52588U 22051BE  22298.84902180 -.00002091  00000-0 -11336-3 0  9994,2 52588  53.2173 244.5842 0001828  66.4279 293.6905 15.08830436 25776,6917.91,95.438,541.039,538.51,0.0
52588.0,STARLINK-3917,PAYLOAD,2022-10-26 04:19:31,15.08838368,0.0001764,53.2177,243.0977,65.1985,294.9190000000001,-6.1645e-05,-1.269e-05,0.0,0 STARLINK-3917,1 52588U 22051BE  22299.18022320 -.00001269  00000-0 -61645-4 0  9996,2 52588  53.2177 243.0977 0001764  65.1985 294.9190 15.08838368 25820,6917.885,95.438,540.971,538.53,0.0
52588.0,STARLINK-3917,PAYLOAD,2022-10-26 18:37:59,15.08837208,0.0001726,53.2176,240.4215,61.3742,298.7423,0.0002298,3.371e-05,0.0,0 STARLINK-3917,1 52588U 22051BE  22299.77638012  .00003371  00000-0  22980-3 0  9994,2 52588  53.2176 240.4215 0001726  61.3742 298.7423 15.08837208 25982,6917.889,95.438,540.948,538.56,0.0
52588.0,STARLINK-3917,PAYLOAD,2022-10-27 02:34:54,15.08844835,0.0001909999999999,53.2173,238.9352,58.2267,301.8911,0.00018534,2.663e-05,0.0,0 STARLINK-3917,1 52588U 22051BE  22300.10758048  .00002663  00000-0  18534-3 0  9999,2 52588  53.2173 238.9352 0001910  58.2267 301.8911 15.08844835 25965,6917.866,95.437,541.052,538.409,0.0
52588.0,STARLINK-3917,PAYLOAD,2022-10-27 23:14:55,15.08843674,0.0001949,53.2179,235.071,59.4035,300.7149,0.00022541,3.301e-05,0.0,0 STARLINK-3917,1 52588U 22051BE  22300.96870175  .00003301  00000-0  22541-3 0  9992,2 52588  53.2179 235.0710 0001949  59.4035 300.7149 15.08843674 26169,6917.869000000002,95.437,541.082,538.386,0.0
52588.0,STARLINK-3917,PAYLOAD,2022-10-28 02:25:42,15.08834928,0.0001859,53.2177,234.4744,60.2951,299.8226,0.00061504,9.513e-05,0.0,0 STARLINK-3917,1 52588U 22051BE  22301.10118687  .00009513  00000-0  61504-3 0  9995,2 52588  53.2177 234.4744 0001859  60.2951 299.8226 15.08834928 26182,6917.896,95.438,541.047,538.475,0.0
52588.0,STARLINK-3917,PAYLOAD,2022-10-28 19:54:56,15.08850859,0.0001826,53.2169,231.2043,57.4337,302.6831,7.09e-05,8.41e-06,0.0,0 STARLINK-3917,1 52588U 22051BE  22301.82981488  .00000841  00000-0  70900-4 0  9997,2 52588  53.2169 231.2043 0001826  57.4337 302.6831 15.08850859 26221,6917.847,95.437,540.975,538.4490000000002,0.0
52588.0,STARLINK-3917,PAYLOAD,2022-10-29 03:51:51,15.08850425,0.0001579,53.217,229.7166,60.4069,299.7081,8.1129e-05,1.004e-05,0.0,0 STARLINK-3917,1 52588U 22051BE  22302.16101278  .00001004  00000-0  81129-4 0  9993,2 52588  53.2170 229.7166 0001579  60.4069 299.7081 15.08850425 26279,6917.849,95.437,540.806,538.621,0.0
52588.0,STARLINK-3917,PAYLOAD,2022-10-29 19:45:37,15.08930307,0.0001639,53.2165,226.7429,37.7365,322.3742,0.0010723,0.00016861,0.0,0 STARLINK-3917,1 52588U 22051BE  22302.82335228  .00016861  00000-0  10723-2 0  9997,2 52588  53.2165 226.7429 0001639  37.7365 322.3742 15.08930307 26371,6917.604,95.432,540.6030000000002,538.336,0.0
52588.0,STARLINK-3917,PAYLOAD,2022-10-29 22:56:22,15.08913766,0.0001793,53.2175,226.1496,38.4242,321.6878,0.00054371,8.393e-05,0.0,0 STARLINK-3917,1 52588U 22051BE  22302.95581620  .00008393  00000-0  54371-3 0  9999,2 52588  53.2175 226.1496 0001793  38.4242 321.6878 15.08913766 26465,6917.655,95.433,540.76,538.28,0.0
52588.0,STARLINK-3917,PAYLOAD,2022-10-30 08:28:47,15.08827547,0.0001927,53.2176,224.3656,51.8076,308.3089,-0.00021471,-3.703e-05,0.0,0 STARLINK-3917,1 52588U 22051BE  22303.35332411 -.00003703  00000-0 -21471-3 0  9993,2 52588  53.2176 224.3656 0001927  51.8076 308.3089 15.08827547 26453,6917.918000000002,95.438,541.117,538.45,0.0
52588.0,STARLINK-3917,PAYLOAD,2022-10-30 18:01:06,15.08815585,0.0001659,53.218,222.5796,55.4044,304.7104,-0.00025884,-4.402e-05,0.0,0 STARLINK-3917,1 52588U 22051BE  22303.75077476 -.00004402  00000-0 -25884-3 0  9993,2 52588  53.2180 222.5796 0001659  55.4044 304.7104 15.08815585 26514,6917.955,95.439,540.9680000000002,538.672,0.0
52588.0,STARLINK-3917,PAYLOAD,2022-10-31 03:33:25,15.0882716,0.0001766,53.2181,220.7951,55.425,304.6909,-0.000158,-2.801e-05,0.0,0 STARLINK-3917,1 52588U 22051BE  22304.14820682 -.00002801  00000-0 -15800-3 0  9990,2 52588  53.2181 220.7951 0001766  55.4250 304.6909 15.08827160 26576,6917.92,95.438,541.006,538.563,0.0
52588.0,STARLINK-3917,PAYLOAD,2022-10-31 19:27:15,15.08857826,0.0001854,53.2188,217.8225,45.5209,314.5934,-0.00062856,-0.00010283,0.0,0 STARLINK-3917,1 52588U 22051BE  22304.81059721 -.00010283  00000-0 -62856-3 0  9998,2 52588  53.2188 217.8225 0001854  45.5209 314.5934 15.08857826 26677,6917.826,95.436,540.9730000000002,538.408,0.0
52588.0,STARLINK-3917,PAYLOAD,2022-11-01 03:24:10,15.08862144,0.0001865,53.2182,216.3341,69.9213,290.198,-0.00047887,-7.906e-05,0.0,0 STARLINK-3917,1 52588U 22051BE  22305.14178545 -.00007906  00000-0 -47887-3 0  9996,2 52588  53.2182 216.3341 0001865  69.9213 290.1980 15.08862144 26793,6917.813,95.436,540.9680000000002,538.388,0.0
52588.0,STARLINK-3917,PAYLOAD,2022-11-01 11:21:08,15.08810291,0.0001571999999999,53.2162,214.8469,68.3104,291.8056,0.00015498,2.177e-05,0.0,0 STARLINK-3917,1 52588U 22051BE  22305.47301158  .00002177  00000-0  15498-3 0  9996,2 52588  53.2162 214.8469 0001572  68.3104 291.8056 15.08810291 26846,6917.971,95.439,540.924,538.749,0.0
52588.0,STARLINK-3917,PAYLOAD,2022-11-01 17:42:42,15.08761277,0.000154,53.2188,213.6562,80.9085,279.2082,0.0010147,0.00015863,0.0,0 STARLINK-3917,1 52588U 22051BE  22305.73799361  .00015863  00000-0  10147-2 0  9993,2 52588  53.2188 213.6562 0001540  80.9085 279.2082 15.08761277 26813,6918.121,95.443,541.0509999999998,538.9209999999998,0.0
52588.0,STARLINK-3917,PAYLOAD,2022-11-02 01:39:36,15.08822203,0.0001875,53.2173,212.1723,49.6521,310.4635,0.0002728999999999,4.056e-05,0.0,0 STARLINK-3917,1 52588U 22051BE  22306.06917687  .00004056  00000-0  27290-3 0  9993,2 52588  53.2173 212.1723 0001875  49.6521 310.4635 15.08822203 26930,6917.935,95.439,541.097,538.503,0.0
52588.0,STARLINK-3917,PAYLOAD,2022-11-02 11:11:56,15.08820661,0.0001983,53.2171,210.3891,47.3725,312.7434,0.00017953,2.569e-05,0.0,0 STARLINK-3917,1 52588U 22051BE  22306.46662390  .00002569  00000-0  17953-3 0  9997,2 52588  53.2171 210.3891 0001983  47.3725 312.7434 15.08820661 26922,6917.94,95.439,541.1759999999998,538.433,0.0
52588.0,STARLINK-3917,PAYLOAD,2022-11-03 03:05:48,15.08820994,0.0002028,53.2176,207.4134,55.1022,305.016,4.413600000000001e-05,4.14e-06,0.0,0 STARLINK-3917,1 52588U 22051BE  22307.12903613  .00000414  00000-0  44136-4 0  9998,2 52588  53.2176 207.4134 0002028  55.1022 305.0160 15.08820994 27091,6917.938,95.439,541.206,538.401,0.0
52588.0,STARLINK-3917,PAYLOAD,2022-11-03 11:02:44,15.08823945,0.00021,53.2192,205.9265,56.8449,303.2744,2.2218000000000006e-05,6.5e-07,0.0,0 STARLINK-3917,1 52588U 22051BE  22307.46023947  .00000065  00000-0  22218-4 0  9997,2 52588  53.2192 205.9265 0002100  56.8449 303.2744 15.08823945 27074,6917.929,95.439,541.247,538.342,0.0
52588.0,STARLINK-3917,PAYLOAD,2022-11-03 15:48:53,15.08833694,0.0001832,53.2181,205.0373,44.3375,315.7764,0.00019933,2.885e-05,0.0,0 STARLINK-3917,1 52588U 22051BE  22307.65894828  .00002885  00000-0  19933-3 0  9993,2 52588  53.2181 205.0373 0001832  44.3375 315.7764 15.08833694 27177,6917.9,95.438,541.0319999999998,538.497,0.0
52588.0,STARLINK-3917,PAYLOAD,2022-11-04 01:21:10,15.08856963,0.0001931,53.2171,203.252,52.774,307.3428,0.00030663,4.598e-05,0.0,0 STARLINK-3917,1 52588U 22051BE  22308.05636891  .00004598  00000-0  30663-3 0  9998,2 52588  53.2171 203.2520 0001931  52.7740 307.3428 15.08856963 27234,6917.829000000002,95.436,541.029,538.3580000000002,0.0
